{"type":"Feature","properties":{"MUN":"LONGPORT BORO","COUNTY":"ATLANTIC","MUN_LABEL":"Longport Borough","MUN_TYPE":"Borough","NAME":"Longport Borough","GNIS_NAME":"Borough of Longport"},"geometry":{"type":"Polygon","coordinates":[[[-74.5157373,39.3169721],[-74.5164238,39.3166683],[-74.5173766,39.3161152],[-74.5185623,39.3153887],[-74.5196332,39.3147082],[-74.52034,39.3142163],[-74.5213157,39.3135943],[-74.5224947,39.3128245],[-74.5230907,39.3125119],[-74.523245,39.3124064],[-74.5233785,39.3122108],[-74.5234266,39.3121517],[-74.5238561,39.3118209],[-74.5242296,39.3115505],[-74.5246793,39.3112306],[-74.5251429,39.3108841],[-74.5256686,39.3104399],[-74.5258759,39.3102769],[-74.5262013,39.3100548],[-74.5265282,39.3097964],[-74.5268862,39.3094802],[-74.5270462,39.3093751],[-74.5273374,39.3091494],[-74.527672,39.3088729],[-74.5278444,39.308751],[-74.5282163,39.3084275],[-74.5286939,39.308046],[-74.5297576,39.3070984],[-74.530722,39.3063124],[-74.5318688,39.3053937],[-74.532,39.305308],[-74.5330047,39.3046415],[-74.5333021,39.3044025],[-74.533938,39.303963],[-74.534149,39.3037843],[-74.5342267,39.3036999],[-74.5345679,39.3033934],[-74.534943,39.3029214],[-74.5349668,39.3028955],[-74.5369311,39.3016858],[-74.5393758,39.300124],[-74.5402938,39.299546],[-74.5404878,39.2997352],[-74.5407585,39.3000022],[-74.5412929,39.3005473],[-74.5420262,39.301078],[-74.5425291,39.3014137],[-74.5429634,39.3016551],[-74.5426618,39.3018662],[-74.5423671,39.3020828],[-74.542,39.3023812],[-74.5416833,39.3026361],[-74.5412162,39.3029993],[-74.5408711,39.3032649],[-74.5405252,39.3035525],[-74.5399361,39.3039803],[-74.5395415,39.3042619],[-74.5392539,39.3044841],[-74.5386417,39.3049886],[-74.5380949,39.3054114],[-74.5377145,39.3056877],[-74.5372474,39.3060508],[-74.5368802,39.3063437],[-74.5365068,39.3066089],[-74.5360751,39.3069725],[-74.535407,39.3074599],[-74.534824,39.3079317],[-74.5343709,39.3082787],[-74.5340329,39.3085223],[-74.5334719,39.3089723],[-74.5329685,39.3093406],[-74.5324297,39.309747],[-74.5317829,39.3102511],[-74.5311926,39.3106899],[-74.5306821,39.3111021],[-74.5302281,39.3114984],[-74.5296891,39.3118992],[-74.5294148,39.3121656],[-74.5292826,39.3123841],[-74.5290355,39.3127278],[-74.5287854,39.3131924],[-74.5285585,39.3135473],[-74.5283971,39.313848],[-74.5282569,39.3141268],[-74.5281371,39.3144335],[-74.5279364,39.3149097],[-74.5277872,39.315282],[-74.5276813,39.3156383],[-74.5275454,39.3160492],[-74.52749,39.316351],[-74.5273562,39.3169765],[-74.5272031,39.3175467],[-74.5270731,39.3180347],[-74.5269663,39.3184185],[-74.5268415,39.3189946],[-74.5266873,39.3196198],[-74.5265484,39.3201737],[-74.5263811,39.3207767],[-74.5262672,39.3211274],[-74.5261251,39.3215053],[-74.5259415,39.3218552],[-74.5258215,39.3221839],[-74.5256167,39.322506],[-74.5253323,39.3228987],[-74.5250719,39.3231872],[-74.5248681,39.3234544],[-74.5246512,39.3236774],[-74.5243494,39.3238939],[-74.5240769,39.3240504],[-74.5237689,39.3242228],[-74.5233551,39.3243995],[-74.5229764,39.3245426],[-74.5194297,39.3208338],[-74.5184092,39.3197666],[-74.5157373,39.3169721]]]}}
